{
  "type": "FeatureCollection",
  "generator": "overpass-turbo",
  "copyright": "The data included in this document is from www.openstreetmap.org. The data is made available under ODbL.",
  "timestamp": "2025-06-15T18:10:45Z",
  "features": [
    {
      "type": "Feature",
      "properties": {
        "@id": "node/54",
        "admin_level": "3",
        "capital": "3",
        "int_name": "Novosibirsk",
        "name": "Новосибирск",
        "name:af": "Nowosibirsk",
        "name:am": "ኖቮሲቢርስክ",
        "name:an": "Novosibirsk",
        "name:ar": "نوفوسيبيرسك",
        "name:az": "Novosibirsk",
        "name:be": "Новасібірск",
        "name:bn": "নোভোসিবির্স্ক",
        "name:br": "Novosibirsk",
        "name:bs": "Novosibirsk",
        "name:ca": "Novossibirsk",
        "name:cs": "Novosibirsk",
        "name:cu": "Новосибирьскъ",
        "name:cv": "Çĕнĕ Çĕпĕр",
        "name:cy": "Novosibirsk",
        "name:da": "Novosibirsk",
        "name:de": "Nowosibirsk",
        "name:el": "Νοβοσιμπίρσκ",
        "name:en": "Novosibirsk",
        "name:eo": "Novosibirsko",
        "name:es": "Novosibirsk",
        "name:et": "Novosibirsk",
        "name:eu": "Novosibirsk",
        "name:fa": "نووسیبیرسک",
        "name:fi": "Novosibirsk",
        "name:fr": "Novossibirsk",
        "name:fy": "Novosibirsk",
        "name:ga": "Novosibirsk",
        "name:gl": "Novosibirsk",
        "name:gv": "Novosibirsk",
        "name:ha": "Novosibirsk",
        "name:he": "נובוסיבירסק",
        "name:hi": "नोवोसिबिर्स्क",
        "name:hr": "Novosibirsk",
        "name:ht": "Novòsibirsk",
        "name:hu": "Novoszibirszk",
        "name:hy": "Նովոսիբիրսկ",
        "name:ia": "Novosibirsk",
        "name:id": "Novosibirsk",
        "name:io": "Novosibirsk",
        "name:is": "Novosíbírsk",
        "name:it": "Novosibirsk",
        "name:ja": "ノヴォシビルスク",
        "name:ka": "ნოვოსიბირსკი",
        "name:kk": "Новосібір",
        "name:kn": "ನೋವೋಸಿಬಿರ್ಸ್ಕ್",
        "name:ko": "노보시비르스크",
        "name:la": "Novosibirscum",
        "name:lb": "Nowosibirsk",
        "name:lg": "Novosibirsk",
        "name:li": "Novosibirsk",
        "name:lt": "Novosibirskas",
        "name:lv": "Novosibirska",
        "name:ml": "നൊവോസിബിർസ്ക്",
        "name:mr": "नोवोसिबिर्स्क",
        "name:ms": "Novosibirsk",
        "name:nb": "Novosibirsk",
        "name:nl": "Novosibirsk",
        "name:nn": "Novosibirsk",
        "name:oc": "Novosibirsk",
        "name:pa": "ਨੋਵੋਸੀਬਿਰਸਕ",
        "name:pl": "Nowosybirsk",
        "name:ps": "نووسيبيرسک",
        "name:pt": "Novosibirsk",
        "name:qu": "Nowosibirsk",
        "name:rn": "Novossibirsk",
        "name:ro": "Novosibirsk",
        "name:ru": "Новосибирск",
        "name:ru:word_stress": "Новосиби́рск",
        "name:sg": "Novosibirsk",
        "name:sk": "Novosibirsk",
        "name:sl": "Novosibirsk",
        "name:sq": "Novosibirsku",
        "name:sv": "Novosibirsk",
        "name:sw": "Novosibirsk",
        "name:ta": "நோவசிபீர்சுக்",
        "name:th": "โนโวซีบีสค์",
        "name:tl": "Novosibirsk",
        "name:tr": "Novosibirsk",
        "name:tw": "Novosibirsk",
        "name:ug": "Nowosibirski",
        "name:uk": "Новосибірськ",
        "name:ur": "نووسیبیرسک",
        "name:uz": "Novosibirsk",
        "name:vi": "Novosibirsk",
        "name:vo": "Novosibirsk",
        "name:wo": "Novosibirsk",
        "name:zh": "新西伯利亚",
        "name:zh-Hans": "新西伯利亚",
        "name:zh-Hant": "新西伯利亞",
        "official_status": "ru:город",
        "old_name": "Ново-Николаевск",
        "old_name:en": "Novo-Nikolayevsk",
        "old_name:fr": "Novonikolaïevsk",
        "old_name:fr:1893-1925": "Novonikolaïevsk",
        "old_name:ru": "Ново-Николаевск",
        "place": "city",
        "population": "1633851",
        "population:date": "2024-01-01",
        "source:name:oc": "Lo Congrès",
        "source:population": "wikipedia",
        "start_date": "1893",
        "wikidata": "Q883",
        "wikipedia": "ru:Новосибирск"
      },
      "geometry": {
        "type": "Point",
        "coordinates": [
          82.9226887,
          55.0288307
        ]
      },
      "id": "node/54"
    },
    {
      "type": "Feature",
      "properties": {
        "@id": "node/27490597",
        "admin_level": "3",
        "alt_name:vi": "Sankt-Peterburg",
        "capital": "3",
        "int_name": "Sankt-Peterburg",
        "loc_name": "Питер",
        "name": "Санкт-Петербург",
        "name:ab": "Санқт-Петербург",
        "name:af": "Sint Petersburg",
        "name:am": "ሳንክት ፔቴርቡርግ",
        "name:an": "Sant Petersburgo",
        "name:ar": "سانت بطرسبرغ",
        "name:ast": "San Petersburgu",
        "name:av": "Петербур",
        "name:ay": "Santu Pitirwurhu",
        "name:az": "Sankt-Peterburq",
        "name:be": "Санкт-Пецярбург",
        "name:be-tarask": "Санкт-Пецярбург",
        "name:bg": "Санкт Петербург",
        "name:bh": "सेंट पीटर्सबर्ग",
        "name:bi": "San-Peterburg",
        "name:bm": "Saint Petersburg",
        "name:bn": "সেন্ট পিটার্সবার্গ",
        "name:bo": "སན་པི་ཏི་པོག",
        "name:br": "Sant-Petersbourg",
        "name:bs": "Sankt Peterburg",
        "name:ca": "Sant Petersburg",
        "name:ce": "Петарбух",
        "name:ch": "Saint Petersburg",
        "name:co": "San Petruburgu",
        "name:cs": "Petrohrad",
        "name:cu": "Санктъ Пєтєрбоургъ",
        "name:cy": "St Petersburg",
        "name:da": "Sankt Petersborg",
        "name:de": "Sankt Petersburg",
        "name:dsb": "Sankt Petersburg",
        "name:el": "Αγία Πετρούπολη",
        "name:en": "Saint Petersburg",
        "name:eo": "Sankt-Peterburgo",
        "name:es": "San Petersburgo",
        "name:et": "Peterburi",
        "name:etymology:wikidata": "Q33923",
        "name:eu": "San Petersburgo",
        "name:fa": "سن پترزبورگ",
        "name:fi": "Pietari",
        "name:fj": "Yalododonu Petersburg",
        "name:fo": "St. Pætursborg",
        "name:fr": "Saint-Pétersbourg",
        "name:fy": "Sint-Petersburch",
        "name:ga": "Cathair Pheadair",
        "name:gd": "Sankt Peterburg",
        "name:gl": "San Petersburgo",
        "name:gn": "San Petersburgo",
        "name:gv": "Caayr Pheddyr",
        "name:ha": "Saint-Petersburg",
        "name:he": "סנקט פטרבורג",
        "name:hi": "सेंट पीटर्सबर्ग",
        "name:hr": "Sankt Peterburg",
        "name:hsb": "Pětrohród",
        "name:ht": "Sen Pitèboug",
        "name:hu": "Szentpétervár",
        "name:hy": "Սանկտ Պետերբուրգ",
        "name:ia": "Sancte Petroburgo",
        "name:id": "Sankt-Peterburg",
        "name:ie": "Sant Petersburg",
        "name:io": "Sankt-Peterburg",
        "name:is": "Sankti Pétursborg",
        "name:it": "San Pietroburgo",
        "name:ja": "サンクト ペテルブルク",
        "name:jv": "St. Petersburg",
        "name:ka": "სანქტ-პეტერბურგი",
        "name:kab": "Saint-Petersburg",
        "name:kg": "Saint Petersburg",
        "name:kn": "ಸಂಕ್ತ್ ಪೇಟೆರ್ಬುಗ್",
        "name:ko": "상트페테르부르크",
        "name:ku": "Sankt Petersburg",
        "name:kv": "Петыркар",
        "name:kw": "Sen Pederburg",
        "name:la": "Petropolis",
        "name:lb": "Sankt Péitersbuerg",
        "name:li": "Sint-Petersburg",
        "name:lo": "ເຊນປີເຕີສເບີກ",
        "name:lt": "Sankt Peterburgas",
        "name:lv": "Sanktpēterburga",
        "name:mg": "Saint Petersburg",
        "name:mi": "Pitāpaka",
        "name:mk": "Санкт Петербург",
        "name:ml": "സെന്റ് പീറ്റേഴ്സ്ബർഗ്",
        "name:mr": "सेंट पीटर्सबर्ग",
        "name:ms": "Saint Petersburg",
        "name:mt": "San Pietruburgu",
        "name:my": "စိန့်ပီတာစဘတ်မြို့",
        "name:nb": "Sankt Petersburg",
        "name:ne": "सेन्ट पिटर्सवर्ग",
        "name:nl": "Sint-Petersburg",
        "name:nn": "St. Petersburg",
        "name:ny": "Saint Petersburg",
        "name:oc": "Sant Petersborg",
        "name:os": "Бетъырбух",
        "name:pa": "ਸੇਂਟ ਪੀਟਰਸਬਰਗ",
        "name:pl": "Sankt Petersburg",
        "name:ps": "سینټ پیټرزبورګ",
        "name:pt": "São Petersburgo",
        "name:qu": "Sankt Peterburg",
        "name:rn": "Saint-Pétersbourg",
        "name:ro": "Sankt Petersburg",
        "name:ru": "Санкт-Петербург",
        "name:ru:word_stress": "Са́нкт-Петербу́рг",
        "name:sc": "San Pietroburgo",
        "name:sd": "سينٽ پيٽرسبرگ",
        "name:sg": "Saint Petersburg",
        "name:sk": "Petrohrad",
        "name:sl": "Sankt Peterburg",
        "name:so": "Saint Petersburg",
        "name:sq": "Shën Petersburgu",
        "name:sr": "Санкт Петербург",
        "name:sv": "Sankt Petersburg",
        "name:sw": "Sankt Peterburg",
        "name:ta": "சென் பீட்டர்சுபெர்கு",
        "name:te": "సెయింట్ పీటర్స్‌బర్గ్",
        "name:th": "เซนต์ปีเตอส์เบิร์ก",
        "name:tk": "Sankt-Peterburg",
        "name:tl": "San Petersburgo",
        "name:tr": "Sankt-Peterburg",
        "name:tw": "Saint Petersburg",
        "name:tzl": "Sant Pairbuerg",
        "name:ug": "Sankt-Pétérburg",
        "name:uk": "Санкт-Петербург",
        "name:ur": "سینٹ پیٹرز برگ",
        "name:uz": "Sankt-Peterburg",
        "name:vi": "Xanh Pê-téc-bua",
        "name:vo": "Sankt-Peterburg",
        "name:wa": "Sint Petersbork",
        "name:wo": "Sankt-Peterburg",
        "name:yi": "פעטערבורג",
        "name:yo": "Saint Petersburg",
        "name:zh": "圣彼得堡",
        "name:zh-Hans": "圣彼得堡",
        "name:zh-Hant": "聖彼得堡",
        "official_status": "ru:город",
        "old_alt_name:vi": "Bỉ Đắc",
        "old_name:1914-08-31--1924-01-26": "Петроград",
        "old_name:1924-01-26--1991-09-06": "Ленинград",
        "old_name:ar": "لينينغراد;بيتروغراد",
        "old_name:ca:1914-08-31--1924-01-26": "Petrograd",
        "old_name:ca:1924-01-26--1991-09-06": "Leningrad",
        "old_name:cs:1924-01-26--1991-09-06": "Leningrad",
        "old_name:en:1914-08-31--1924-01-26": "Petrograd",
        "old_name:en:1924-01-26--1991-09-06": "Leningrad",
        "old_name:eo": "Petrogrado;Leningrado",
        "old_name:fr": "Pétrograd;Léningrad",
        "old_name:hr": "Petrograd;Lenjingrad",
        "old_name:ko": "페트로그라드;레닌그라드",
        "old_name:os": "Петроград;Ленинград",
        "old_name:sv": "Petrograd;Leningrad",
        "old_name:vi": "Petrograd;Leningrad",
        "place": "city",
        "population": "5597763",
        "population:date": "2024",
        "short_name": "СПб",
        "source:name:oc": "Lo Congrès",
        "sqkm": "1439",
        "start_date": "1703",
        "website": "https://www.gov.spb.ru/",
        "wikidata": "Q656",
        "wikipedia": "ru:Санкт-Петербург"
      },
      "geometry": {
        "type": "Point",
        "coordinates": [
          30.316229,
          59.938732
        ]
      },
      "id": "node/27490597"
    },
    {
      "type": "Feature",
      "properties": {
        "@id": "node/27503892",
        "addr:country": "RU",
        "addr:region": "Свердловская область",
        "admin_level": "3",
        "alt_name:ar": "ييكاتيرينبرج",
        "alt_name:en": "Ekaterinburg",
        "capital": "3",
        "contact:phone": "+7 343 3824528",
        "contact:vk": "https://vk.com/ekadm",
        "contact:website": "https://екатеринбург.рф",
        "flag": "https://upload.wikimedia.org/wikipedia/commons/4/44/Flag_of_Yekaterinburg_(Sverdlovsk_oblast).svg",
        "image": "https://upload.wikimedia.org/wikipedia/commons/0/0b/Views_of_Yekaterinburg_(August_2022)_01.jpg",
        "int_name": "Yekaterinburg",
        "loc_name": "Ёбург",
        "name": "Екатеринбург",
        "name:af": "Jekaterinburg",
        "name:am": "የካተሪንቡርግ",
        "name:an": "Yekaterinburg",
        "name:ar": "يكاترينبورغ",
        "name:az": "Yekaterinburq",
        "name:ba": "Кәтринбур",
        "name:be": "Екацярынбург",
        "name:bn": "ইয়েকাতেরিনবুর্গ",
        "name:br": "Yekaterinbourg",
        "name:bs": "Jekaterinburg",
        "name:ca": "Iekaterinburg",
        "name:cs": "Jekatěrinburg",
        "name:cu": "Єкатєрїнбоургъ",
        "name:cv": "Екатеринбург",
        "name:cy": "Ekaterinburg",
        "name:da": "Jekaterinburg",
        "name:de": "Jekaterinburg",
        "name:el": "Γεκατερινμπούργκ",
        "name:en": "Yekaterinburg",
        "name:eo": "Jekaterinburgo",
        "name:es": "Ekaterimburgo",
        "name:et": "Jekaterinburg",
        "name:eu": "Jekaterinburg",
        "name:fa": "یکاترینبورگ",
        "name:fi": "Jekaterinburg",
        "name:fo": "Jekaterinburg",
        "name:fr": "Iekaterinbourg",
        "name:fy": "Jekaterineburch",
        "name:ga": "Yekaterinburg",
        "name:gl": "Ekaterimburgo",
        "name:ha": "Ekaterinburg",
        "name:he": "יקטרינבורג",
        "name:hi": "येकातेरिनबर्ग",
        "name:hr": "Ekaterinburg",
        "name:ht": "Ikáterinbourg",
        "name:hu": "Jekatyerinburg",
        "name:hy": "Եկատերինբուրգ",
        "name:id": "Ekaterinburg",
        "name:io": "Yekaterinburg",
        "name:is": "Katrínarborg",
        "name:it": "Ekaterinburg",
        "name:ja": "エカテリンブルク",
        "name:ka": "ეკატერინბურგი",
        "name:kk": "Екатеринбург",
        "name:kn": "ಯೇಕಾತೇರಿನ್ಬುರ್ಗ್",
        "name:ko": "예카테린부르크",
        "name:ku": "Yekaterînbûrg",
        "name:la": "Catharinopolis",
        "name:lb": "Jekaterinburg",
        "name:li": "Jekaterinaburg",
        "name:lt": "Jekaterinburgas",
        "name:lv": "Jekaterinburga",
        "name:ml": "യെകാർതെറിൻബർഗ്ഗ്",
        "name:mr": "येकातेरिनबुर्ग",
        "name:ms": "Yekaterinburg",
        "name:my": "ယဲ့ကာကျယ်ရင်ဘုဂ်မြို့",
        "name:nb": "Jekaterinburg",
        "name:nl": "Jekaterinenburg",
        "name:nn": "Jekaterinburg",
        "name:oc": "Yekaterinburg",
        "name:pl": "Jekaterynburg",
        "name:ps": "یکاترینبورګ",
        "name:pt": "Ecaterimburgo",
        "name:qu": "Jekaterinburg",
        "name:ro": "Ekaterinburg",
        "name:ru": "Екатеринбург",
        "name:ru:word_stress": "Екатеринбу́рг",
        "name:sk": "Jekaterinburg",
        "name:sl": "Jekaterinburg",
        "name:sq": "Jekaterinburgu",
        "name:sr": "Јекатеринбург",
        "name:sr-Latn": "Jekaterinburg",
        "name:sv": "Jekaterinburg",
        "name:sw": "Yekaterinburg",
        "name:ta": "எக்கத்தரீன்பூர்க்",
        "name:th": "เยคาเตรินบุร์ก",
        "name:tl": "Yekaterinburg",
        "name:tr": "Yekaterinburg",
        "name:tt": "Екатеринбург",
        "name:tw": "Yekaterinburg",
        "name:uk": "Єкатеринбург",
        "name:ur": "یاکاترنبرگ",
        "name:uz": "Yekaterinburg",
        "name:vi": "Yekaterinburg",
        "name:vo": "Yekaterinburg",
        "name:wo": "Yekaterinburg",
        "name:zh": "叶卡捷琳堡",
        "name:zh-Hans": "叶卡捷琳堡",
        "name:zh-Hant": "葉卡捷琳堡",
        "note": "why capital=yes and admin_level=3? see http://wiki.openstreetmap.org/wiki/Proposed_features/capital#Combination_with_admin_level",
        "official_status": "ru:город",
        "old_name:cs": "Sverdlovsk",
        "old_name:de": "Swerdlowsk",
        "old_name:en": "Sverdlovsk",
        "old_name:eo": "Sverdlovsk",
        "old_name:es": "Sverdlovsk",
        "old_name:fr": "Sverdlovsk",
        "old_name:ru": "Свердловск",
        "old_name:sk": "Sverdlovsk",
        "old_name:sl": "Sverdlovsk",
        "old_name:zh": "斯維爾德洛夫斯克",
        "place": "city",
        "population": "1548187",
        "population:date": "2025-01-01",
        "short_name": "Екб",
        "source:name:oc": "Lo Congrès",
        "start_date": "1723-11-18",
        "wikidata": "Q887",
        "wikipedia": "ru:Екатеринбург"
      },
      "geometry": {
        "type": "Point",
        "coordinates": [
          60.60825,
          56.839104
        ]
      },
      "id": "node/27503892"
    },
    {
      "type": "Feature",
      "properties": {
        "@id": "node/27503945",
        "addr:country": "RU",
        "addr:region": "Самарская область",
        "admin_level": "4",
        "alt_name:ar": "سامارا",
        "alt_name:sk": "Kujbyšev",
        "alt_name:sl": "Kujbišev",
        "capital": "4",
        "int_name": "Samara",
        "name": "Самара",
        "name:af": "Samara",
        "name:am": "ሰማረ",
        "name:ar": "سمارا",
        "name:az": "Samara",
        "name:ba": "Һамар",
        "name:be": "Самара",
        "name:bn": "সামারা",
        "name:br": "Samara",
        "name:bs": "Samara",
        "name:ca": "Samara",
        "name:cs": "Samara",
        "name:cv": "Самар",
        "name:cy": "Samara",
        "name:da": "Samara",
        "name:de": "Samara",
        "name:el": "Σαμάρα",
        "name:en": "Samara",
        "name:eo": "Samara",
        "name:es": "Samara",
        "name:et": "Samara",
        "name:eu": "Samara",
        "name:fa": "سامارا",
        "name:fi": "Samara",
        "name:fj": "Samara",
        "name:fo": "Samara",
        "name:fr": "Samara",
        "name:fy": "Samara",
        "name:ga": "Samara",
        "name:gl": "Samara",
        "name:ha": "Samara",
        "name:he": "סמרה",
        "name:hi": "समारा",
        "name:hr": "Samara",
        "name:hu": "Szamara",
        "name:hy": "Սամարա",
        "name:id": "Samara",
        "name:ie": "Samara",
        "name:io": "Samara",
        "name:is": "Samara",
        "name:it": "Samara",
        "name:ja": "サマーラ",
        "name:ka": "სამარა",
        "name:kn": "ಸಮಾರ",
        "name:ko": "사마라",
        "name:la": "Samara",
        "name:li": "Samara",
        "name:lt": "Samara",
        "name:lv": "Samara",
        "name:mg": "Samara",
        "name:mi": "Hamara",
        "name:ml": "സമാറ",
        "name:mr": "समारा",
        "name:my": "ဆာမာရာမြို့",
        "name:nb": "Samara",
        "name:nl": "Samara",
        "name:nn": "Samara",
        "name:oc": "Samara",
        "name:os": "Самарæ",
        "name:pl": "Samara",
        "name:ps": "سمارا",
        "name:pt": "Samara",
        "name:qu": "Samara",
        "name:ro": "Samara",
        "name:ru": "Самара",
        "name:sk": "Samara",
        "name:sl": "Samara",
        "name:sr": "Самара",
        "name:sr-Latn": "Samara",
        "name:sv": "Samara",
        "name:sw": "Samara",
        "name:ta": "சமாரா",
        "name:th": "ซามารา",
        "name:tl": "Samara",
        "name:tr": "Samara",
        "name:tt": "Самар",
        "name:tw": "Samara",
        "name:uk": "Самара",
        "name:ur": "سمارا",
        "name:uz": "Samara",
        "name:vi": "Samara",
        "name:vo": "Samara",
        "name:zh": "萨马拉",
        "name:zh-Hans": "萨马拉",
        "name:zh-Hant": "薩馬拉",
        "official_status": "ru:город",
        "old_name:1935-01-27--1991-01-25": "Куйбышев",
        "old_name:de:1935-01-27--1991-01-25": "Kuibyschew",
        "place": "city",
        "population": "1163645",
        "population:date": "2023-01-01",
        "source:name:oc": "Lo Congrès",
        "wikidata": "Q894",
        "wikipedia": "ru:Самара"
      },
      "geometry": {
        "type": "Point",
        "coordinates": [
          50.1014927,
          53.1956255
        ]
      },
      "id": "node/27503945"
    },
    {
      "type": "Feature",
      "properties": {
        "@id": "node/27503946",
        "capital": "4",
        "contact:email": "mail@admomsk.ru",
        "contact:ok": "gorodomskrf",
        "contact:phone": "+7 3812 787820",
        "contact:telegram": "omskonelove",
        "contact:vk": "omsk",
        "contact:website": "https://admomsk.gosuslugi.ru",
        "ele": "90",
        "flag": "https://upload.wikimedia.org/wikipedia/commons/thumb/4/4b/Flag_of_Omsk.svg/1280px-Flag_of_Omsk.svg.png",
        "int_name": "Omsk",
        "name": "Омск",
        "name:af": "Omsk",
        "name:am": "ኦምስክ",
        "name:ar": "أومسك",
        "name:az": "Omsk",
        "name:be": "Омск",
        "name:bn": "ওমস্ক",
        "name:br": "Omsk",
        "name:bs": "Omsk",
        "name:ca": "Omsk",
        "name:cs": "Omsk",
        "name:cu": "Омьскъ",
        "name:cy": "Omsk",
        "name:da": "Omsk",
        "name:de": "Omsk",
        "name:el": "Ομσκ",
        "name:en": "Omsk",
        "name:eo": "Omsko",
        "name:es": "Omsk",
        "name:et": "Omsk",
        "name:eu": "Omsk",
        "name:fa": "امسک",
        "name:fi": "Omsk",
        "name:fr": "Omsk",
        "name:fy": "Omsk",
        "name:ga": "Omsk",
        "name:gl": "Omsk",
        "name:ha": "Omsk",
        "name:he": "אומסק",
        "name:hr": "Omsk",
        "name:hu": "Omszk",
        "name:hy": "Օմսկ",
        "name:id": "Omsk",
        "name:ie": "Omsk",
        "name:io": "Omsk",
        "name:is": "Omsk",
        "name:it": "Omsk",
        "name:ja": "オムスク",
        "name:jv": "Omsk",
        "name:ka": "ომსკი",
        "name:kk": "Омбы",
        "name:ko": "옴스크",
        "name:la": "Omium",
        "name:lg": "Omsk",
        "name:lt": "Omskas",
        "name:lv": "Omska",
        "name:mg": "Omsk",
        "name:mi": "Amoiki",
        "name:mr": "ओम्स्क",
        "name:ms": "Omsk",
        "name:nb": "Omsk",
        "name:nl": "Omsk",
        "name:nn": "Omsk",
        "name:oc": "Omsk",
        "name:pl": "Omsk",
        "name:pt": "Omsk",
        "name:qu": "Omsk",
        "name:ro": "Omsk",
        "name:ru": "Омск",
        "name:sk": "Omsk",
        "name:sl": "Omsk",
        "name:sq": "Omsk",
        "name:sr": "Омск",
        "name:sty": "Умбы",
        "name:sv": "Omsk",
        "name:sw": "Omsk",
        "name:th": "ออมสค์",
        "name:tl": "Omsk",
        "name:tr": "Omsk",
        "name:tw": "Omsk",
        "name:uk": "Омськ",
        "name:ur": "اومسک",
        "name:uz": "Omsk",
        "name:vi": "Omsk",
        "name:vo": "Omsk",
        "name:wo": "Omsk",
        "name:zh": "鄂木斯克",
        "official_status": "ru:город",
        "place": "city",
        "population": "1104485",
        "population:date": "2024-01-01",
        "source:name:oc": "Lo Congrès",
        "source:population": "wikipedia",
        "start_date": "1716",
        "wikidata": "Q898",
        "wikipedia": "ru:Омск"
      },
      "geometry": {
        "type": "Point",
        "coordinates": [
          73.371529,
          54.991375
        ]
      },
      "id": "node/27503946"
    },
    {
      "type": "Feature",
      "properties": {
        "@id": "node/27504067",
        "addr:country": "RU",
        "addr:region": "Татарстан",
        "admin_level": "4",
        "capital": "4",
        "contact:ok": "https://ok.ru/kzn",
        "contact:telegram": "kzn_official",
        "contact:vk": "https://vk.com/kzn",
        "contact:website": "https://kzn.ru",
        "contact:youtube": "https://www.youtube.com/channel/UC_nhCN0yJtq2DMdKhvNtxIQ",
        "ele": "60",
        "flag": "https://upload.wikimedia.org/wikipedia/commons/thumb/5/5f/Flag_of_Kazan.svg/2560px-Flag_of_Kazan.svg.png",
        "image": "https://upload.wikimedia.org/wikipedia/commons/5/52/KAZ_Collage_2015.png",
        "int_name": "Kazan",
        "loc_name": "Третья столица России",
        "name": "Казань",
        "name:af": "Kazan",
        "name:am": "ካዛን",
        "name:ar": "قازان",
        "name:av": "Къазан",
        "name:az": "Kazan",
        "name:ba": "Ҡазан",
        "name:bg": "Казан",
        "name:bn": "কাজান",
        "name:br": "Kazan",
        "name:bs": "Kazanj",
        "name:ca": "Kazan",
        "name:chm": "Озаҥ",
        "name:ckb": "کازان",
        "name:crh": "Qazan",
        "name:cs": "Kazaň",
        "name:cu": "Каꙁанъ",
        "name:cv": "Хусан",
        "name:cy": "Kazan’",
        "name:da": "Kazan",
        "name:de": "Kasan",
        "name:el": "Καζάν",
        "name:en": "Kazan",
        "name:eo": "Kazano",
        "name:es": "Kazán",
        "name:et": "Kaasan",
        "name:eu": "Kazan",
        "name:fa": "کازان",
        "name:fi": "Kazan",
        "name:fr": "Kazan",
        "name:fy": "Kazan",
        "name:ga": "Kazan",
        "name:gl": "Kazán",
        "name:gn": "Kasã",
        "name:he": "קאזאן",
        "name:hi": "काज़ान",
        "name:hr": "Kazanj",
        "name:hsb": "Kazań",
        "name:hu": "Kazany",
        "name:hy": "Կազան",
        "name:ia": "Kazan",
        "name:id": "Kazan",
        "name:ie": "Kazan",
        "name:io": "Kazan",
        "name:is": "Kazan",
        "name:it": "Kazan'",
        "name:ja": "カザン",
        "name:ka": "ყაზანი",
        "name:kk": "Қазан",
        "name:kn": "ಕಾಜಾ಼ನ್",
        "name:ko": "카잔",
        "name:ku": "Kazan",
        "name:kv": "Казан",
        "name:ky": "Казан",
        "name:la": "Casanum",
        "name:lb": "Kasan",
        "name:li": "Kazan",
        "name:lt": "Kazanė",
        "name:lv": "Kazaņa",
        "name:mhr": "Озаҥ",
        "name:mk": "Казањ",
        "name:ml": "കസാൻ",
        "name:mr": "कझान",
        "name:ms": "Kazan",
        "name:my": "ကာဇန်မြို့",
        "name:nb": "Kazan",
        "name:nl": "Kazan",
        "name:nn": "Kazan",
        "name:oc": "Kazan",
        "name:os": "Хъазан",
        "name:pl": "Kazań",
        "name:ps": "کازان",
        "name:pt": "Cazã",
        "name:qu": "Kazan",
        "name:ro": "Kazan",
        "name:ru": "Казань",
        "name:ru:word_stress": "Каза́нь",
        "name:sg": "Kazan",
        "name:sk": "Kazaň",
        "name:sl": "Kazan",
        "name:sq": "Kazani",
        "name:sr": "Казањ",
        "name:sv": "Kazan",
        "name:sw": "Kazan",
        "name:ta": "கசான்",
        "name:tg": "Қазон",
        "name:th": "คาซัน",
        "name:tk": "Kazan",
        "name:tl": "Kazan",
        "name:tr": "Kazan",
        "name:tt": "Казан",
        "name:tt-lat": "Qazan",
        "name:tw": "Kazan",
        "name:udm": "Кузон",
        "name:ug": "قازان",
        "name:uk": "Казань",
        "name:ur": "قازان",
        "name:uz": "Qozon",
        "name:vi": "Kazan",
        "name:vo": "Kazan",
        "name:wo": "Kazan",
        "name:yi": "קאזאן",
        "name:zh": "喀山",
        "official_status": "ru:город",
        "place": "city",
        "population": "1318604",
        "population:date": "2024-01-01",
        "sqkm": "588.9844",
        "start_date": "1005",
        "wikidata": "Q900",
        "wikipedia": "ru:Казань"
      },
      "geometry": {
        "type": "Point",
        "coordinates": [
          49.1242266,
          55.7823547
        ]
      },
      "id": "node/27504067"
    },
    {
      "type": "Feature",
      "properties": {
        "@id": "node/27504156",
        "addr:city": "Челябинск",
        "addr:country": "RU",
        "addr:district": "Челябинский городской округ",
        "addr:region": "Челябинская область",
        "admin_level": "4",
        "capital": "4",
        "contact:email": "mail@cheladmin.ru",
        "contact:facebook": "https://www.facebook.com/cheladmin74",
        "contact:instagram": "https://www.instagram.com/Cheladmin",
        "contact:ok": "https://ok.ru/group/55824529096902",
        "contact:phone": "+7 351 2633460",
        "contact:telegram": "chelmeria",
        "contact:vk": "https://vk.com/chel_adm",
        "contact:website": "https://cheladmin.ru",
        "ele": "238",
        "flag": "https://upload.wikimedia.org/wikipedia/commons/8/81/Flag_of_Chelyabinsk.svg",
        "int_name": "Chelyabinsk",
        "loc_name": "Танкоград;Столица Южного Урала;Челяба;Че;",
        "name": "Челябинск",
        "name:af": "Tsjeljabinsk",
        "name:alt": "Челябинск",
        "name:an": "Chelyabinsk",
        "name:ar": "تشيليابنسك",
        "name:avk": "Tcelyabinsk",
        "name:az": "Çelyabinsk",
        "name:azb": "چلیابینسک",
        "name:ba": "Силәбе",
        "name:be": "Чалябінск",
        "name:be-tarask": "Чалябінск",
        "name:bg": "Челябинск",
        "name:bn": "চেলিয়াবিন্‌স্ক",
        "name:br": "Tchelyabinsk",
        "name:bxr": "Челябинск",
        "name:ca": "Txeliàbinsk",
        "name:ce": "Челябинск",
        "name:ceb": "Chelyabinsk",
        "name:chm": "Челябе",
        "name:crh": "Çelâbinsk",
        "name:cs": "Čeljabinsk",
        "name:cu": "Чєлѣбиньскъ",
        "name:cv": "Челепи",
        "name:cy": "Chelyabinsk",
        "name:da": "Tjeljabinsk",
        "name:de": "Tscheljabinsk",
        "name:el": "Τσελιάμπινσκ",
        "name:en": "Chelyabinsk",
        "name:eo": "Ĉeljabinsk",
        "name:es": "Cheliábinsk",
        "name:et": "Tšeljabinsk",
        "name:eu": "Txeliabinsk",
        "name:fa": "چلیابینسک",
        "name:fi": "Tšeljabinsk",
        "name:fr": "Tcheliabinsk",
        "name:fy": "Tsjeljabinsk",
        "name:ga": "Chelyabinsk",
        "name:gl": "Cheliabinsk",
        "name:ha": "Chelyabinsk",
        "name:he": "צ'ליאבינסק",
        "name:hi": "चेल्याबिंस्क",
        "name:hr": "Čeljabinsk",
        "name:hsb": "Čeljabinsk",
        "name:hu": "Cseljabinszk",
        "name:hy": "Չելյաբինսկ",
        "name:id": "Chelyabinsk",
        "name:io": "Chelyabinsk",
        "name:is": "Tsjeljabínsk",
        "name:it": "Čeljabinsk",
        "name:ja": "チェリャビンスク",
        "name:jv": "Chelyabinsk",
        "name:ka": "ჩელიაბინსკი",
        "name:kk": "Челябі",
        "name:kl": "Tjeljabinsk",
        "name:kn": "ಚೇಲ್ಯಾಬಿಂಸ್ಕ್",
        "name:ko": "첼랴빈스크",
        "name:koi": "Челяба",
        "name:kv": "Челябинск",
        "name:ky": "Челябинск",
        "name:la": "Celiabinsca",
        "name:lad": "Chelyabinsk",
        "name:lez": "Челябинск",
        "name:lmo": "Čeljabinsk",
        "name:lt": "Čeliabinskas",
        "name:lv": "Čeļabinska",
        "name:mdf": "Челяба",
        "name:mhr": "Челябинск",
        "name:min": "Chelyabinsk",
        "name:mk": "Чељабинск",
        "name:mn": "Челябинск",
        "name:mr": "चेलियाबिन्स्क",
        "name:nah": "Chelyabinsk",
        "name:nb": "Tsjeljabinsk",
        "name:nl": "Tsjeljabinsk",
        "name:nn": "Tsjeljabinsk",
        "name:no": "Tsjeljabinsk",
        "name:oc": "Cheliabinsk",
        "name:os": "Челябинск",
        "name:pcd": "Tchéliabïnsk",
        "name:pl": "Czelabińsk",
        "name:pnb": "چلیابنسک",
        "name:pt": "Tcheliabinsk",
        "name:ro": "Celeabinsk",
        "name:ru": "Челябинск",
        "name:ru:word_stress": "Челя́бинск",
        "name:scn": "Chelyabinsk",
        "name:sco": "Chelyabinsk",
        "name:sh": "Čeljabinsk",
        "name:simple": "Chelyabinsk",
        "name:sk": "Čeľabinsk",
        "name:sl": "Čeljabinsk",
        "name:sr": "Чељабинск",
        "name:sv": "Tjeljabinsk",
        "name:sw": "Chelyabinsk",
        "name:szl": "Czelabińsk",
        "name:tg": "Челябинск",
        "name:th": "เชเลียบินสค์",
        "name:tl": "Chelyabinsk",
        "name:tly": "Celjabinsk",
        "name:tr": "Çelyabinsk",
        "name:tt": "Чиләбе",
        "name:tum": "Chelyabinsk",
        "name:udm": "Челябинск",
        "name:uk": "Челябінськ",
        "name:ur": "چیلیابنسک",
        "name:uz": "Chelyabinsk",
        "name:vep": "Čeläbinsk",
        "name:vi": "Chelyabinsk",
        "name:vo": "Tsyelyabinsk",
        "name:war": "Chelyabinsk",
        "name:wo": "Chelyabinsk",
        "name:wuu": "车里雅宾斯克",
        "name:xmf": "ჩელიაბინსკი",
        "name:yi": "טשעליאבינסק",
        "name:zh-Hans": "车里雅宾斯克",
        "name:zh-Hant": "車里雅賓斯克",
        "note": "Do not remove capital and admin_level tags!",
        "official_status": "ru:город",
        "old_name": "Селябэ;Селяба;",
        "place": "city",
        "population": "1176770",
        "population:date": "2025",
        "postal_code": "454000",
        "short_name": "Че;Чел;",
        "short_name:en": "Che;Chel;",
        "source:name:oc": "Lo Congrès",
        "source:population": "Wikipedia",
        "sqkm": "501",
        "start_date": "1736-09-13",
        "wikidata": "Q906",
        "wikipedia": "ru:Челябинск"
      },
      "geometry": {
        "type": "Point",
        "coordinates": [
          61.4025547,
          55.1598408
        ]
      },
      "id": "node/27504156"
    },
    {
      "type": "Feature",
      "properties": {
        "@id": "node/27504327",
        "addr:country": "RU",
        "addr:region": "Башкортостан",
        "admin_level": "4",
        "capital": "4",
        "contact:email": "cityadm@ufacity.info",
        "contact:facebook": "https://www.facebook.com/ufaadm",
        "contact:instagram": "https://www.instagram.com/ufacityadm",
        "contact:ok": "https://ok.ru/ufaadm",
        "contact:phone": "+7 347 2790579",
        "contact:twitter": "https://twitter.com/ufacity",
        "contact:vk": "https://vk.com/ufa",
        "contact:website": "http://уфа.рф",
        "contact:youtube": "https://www.youtube.com/user/gorodufa",
        "int_name": "Ufa",
        "name": "Уфа",
        "name:af": "Oefa",
        "name:am": "ኡፋ",
        "name:ar": "أوفا",
        "name:az": "Ufa",
        "name:ba": "Өфө",
        "name:be": "Уфа",
        "name:bn": "উফা",
        "name:br": "Oufa",
        "name:bs": "Ufa",
        "name:ca": "Ufà",
        "name:cs": "Ufa",
        "name:cu": "Оуфа",
        "name:cv": "Ӗпхӳ",
        "name:cy": "Ufa",
        "name:da": "Ufa",
        "name:de": "Ufa",
        "name:el": "Ουφά",
        "name:en": "Ufa",
        "name:eo": "Ufa",
        "name:es": "Ufá",
        "name:et": "Ufa",
        "name:eu": "Ufa",
        "name:fa": "اوفا",
        "name:fi": "Ufa",
        "name:fr": "Oufa",
        "name:fy": "Ufa",
        "name:ga": "Ufa",
        "name:gl": "Ufa",
        "name:he": "אופה",
        "name:hi": "ऊफ़ा",
        "name:hr": "Ufa",
        "name:hu": "Ufa",
        "name:hy": "Ուֆա",
        "name:id": "Ufa",
        "name:ie": "Ufa",
        "name:is": "Úfa",
        "name:it": "Ufa",
        "name:ja": "ウファ",
        "name:ka": "უფა",
        "name:kk": "Үфі",
        "name:kn": "ಊಫಾ಼",
        "name:ko": "우파",
        "name:ku": "Ûfa",
        "name:la": "Ufa",
        "name:lg": "Ufa",
        "name:lt": "Ufa",
        "name:lv": "Ufa",
        "name:ml": "ഉഫ",
        "name:mr": "उफा",
        "name:ms": "Ufa",
        "name:nb": "Ufa",
        "name:nl": "Oefa",
        "name:nn": "Ufa",
        "name:oc": "Ufa",
        "name:pl": "Ufa",
        "name:ps": "اوفا",
        "name:pt": "Ufá",
        "name:qu": "Ufa",
        "name:ro": "Ufa",
        "name:ru": "Уфа",
        "name:ru:word_stress": "Уфа́",
        "name:sk": "Ufa",
        "name:sl": "Ufa",
        "name:sq": "Ufa",
        "name:sr": "Уфа",
        "name:sr-Latn": "Ufa",
        "name:sv": "Ufa",
        "name:sw": "Ufa",
        "name:ta": "ஊஃபா",
        "name:th": "อูฟา",
        "name:tl": "Ufa",
        "name:tr": "Ufa",
        "name:tt": "Уфа",
        "name:tw": "Ufa",
        "name:uk": "Уфа",
        "name:ur": "اوفا",
        "name:uz": "Ufa",
        "name:vi": "Ufa",
        "name:vo": "Ufa",
        "name:wo": "Ufa",
        "name:zh": "乌法",
        "name:zh-Hans": "乌法",
        "name:zh-Hant": "烏法",
        "official_status": "ru:город",
        "place": "city",
        "population": "1163304",
        "population:date": "2024-01-01",
        "source:name:oc": "Lo Congrès",
        "start_date": "1574",
        "wikidata": "Q911",
        "wikipedia": "ru:Уфа"
      },
      "geometry": {
        "type": "Point",
        "coordinates": [
          55.947499,
          54.7261409
        ]
      },
      "id": "node/27504327"
    },
    {
      "type": "Feature",
      "properties": {
        "@id": "node/27504363",
        "addr:country": "RU",
        "addr:region": "Волгоградская область",
        "admin_level": "4",
        "alt_name:vi": "Volgograd",
        "capital": "4",
        "contact:email": "opv@volgadmin.ru",
        "contact:ok": "https://ok.ru/volgadmin",
        "contact:phone": "+7 8442 301324",
        "contact:telegram": "volgadmin",
        "contact:vk": "https://vk.com/volgadmin",
        "contact:website": "http://www.volgadmin.ru",
        "int_name": "Volgograd",
        "is_in:country": "Russian Federation",
        "is_in:country_code": "RU",
        "name": "Волгоград",
        "name:af": "Wolgograd",
        "name:am": "ቮልጎግራድ",
        "name:ar": "فولغوغراد",
        "name:az": "Volqoqrad",
        "name:be": "Валгаград",
        "name:bg": "Волгоград",
        "name:bn": "ভলগোগ্রাড",
        "name:br": "Volgograd",
        "name:bs": "Volgograd",
        "name:ca": "Volgograd",
        "name:cs": "Volgograd",
        "name:cu": "Вльгоградъ",
        "name:cy": "Volgograd",
        "name:da": "Volgograd",
        "name:de": "Wolgograd",
        "name:el": "Βόλγκογκραντ",
        "name:en": "Volgograd",
        "name:eo": "Volgogrado",
        "name:es": "Volgogrado",
        "name:et": "Volgograd",
        "name:eu": "Volgograd",
        "name:fa": "ولگوگراد",
        "name:fi": "Volgograd",
        "name:fr": "Volgograd",
        "name:fy": "Wolgograd",
        "name:ga": "Volgograd",
        "name:gl": "Volgogrado",
        "name:gn": "Volgogrado",
        "name:ha": "Volgograd",
        "name:he": "וולגוגרד",
        "name:hi": "वोल्गोग्राद",
        "name:hr": "Volgograd",
        "name:hsb": "Wolgograd",
        "name:ht": "Vòlgograd",
        "name:hu": "Volgográd",
        "name:hy": "Վոլգոգրադ",
        "name:ia": "Volgogrado",
        "name:id": "Volgograd",
        "name:ie": "Volgograd",
        "name:io": "Volgograd",
        "name:is": "Volgograd",
        "name:it": "Volgograd",
        "name:ja": "ヴォルゴクラード",
        "name:jv": "Volgograd",
        "name:ka": "ვოლგოგრადი",
        "name:kn": "ವೋಲ್ಗೊಗ್ರಾಡ್",
        "name:ko": "볼고그라드",
        "name:la": "Volgogradum",
        "name:lb": "Wolgograd",
        "name:li": "Wolgograd",
        "name:lt": "Volgogradas",
        "name:lv": "Volgograda",
        "name:mg": "Volgograd",
        "name:ml": "വോൾഗോഗ്രാഡ്",
        "name:mr": "वोल्गोग्राद",
        "name:ms": "Volgograd",
        "name:my": "ဗော်ဂါဂရတ်မြို့",
        "name:nb": "Volgograd",
        "name:nl": "Wolgograd",
        "name:nn": "Volgograd",
        "name:oc": "Volgograd",
        "name:pa": "ਵੋਲਗਾਗਰਾਤ",
        "name:pl": "Wołgograd",
        "name:ps": "وولګوګراد",
        "name:pt": "Volgogrado",
        "name:qu": "Volgograd",
        "name:ro": "Volgograd",
        "name:ru": "Волгоград",
        "name:si": "වොල්ගාග්‍රාද්",
        "name:sk": "Volgograd",
        "name:sl": "Volgograd",
        "name:sq": "Volgograd",
        "name:sr": "Волгоград",
        "name:sr-Latn": "Volgograd",
        "name:sv": "Volgograd",
        "name:sw": "Volgograd",
        "name:ta": "வோல்கோகிராட்",
        "name:th": "วอลโกกราด",
        "name:tl": "Volgogrado",
        "name:tr": "Volgograd",
        "name:tw": "Volgograd",
        "name:uk": "Волгоград",
        "name:ur": "وولگو گراد",
        "name:uz": "Volgograd",
        "name:vi": "Vôn-ga-grát",
        "name:vo": "Volgograd",
        "name:wo": "Volgograd",
        "name:zh": "伏尔加格勒",
        "name:zh-Hans": "伏尔加格勒",
        "name:zh-Hant": "伏爾加格勒",
        "official_status": "ru:город",
        "old_name:1589-1925": "Царицын",
        "old_name:1925-1961": "Сталинград",
        "old_name:ca:1925-1961": "Stalingrad",
        "old_name:cs:1589-1925": "Caricyn",
        "old_name:de:1589-1925": "Zarizyn",
        "old_name:de:1925-1961": "Stalingrad",
        "old_name:en:1589-1925": "Tsaritsyn",
        "old_name:en:1925-1961": "Stalingrad",
        "old_name:es:1925-1961": "Stalingrado",
        "old_name:fr:1589-1925": "Tsaritsyne",
        "old_name:fr:1925-1961": "Stalingrad",
        "old_name:hr:1589-1925": "Caricin",
        "old_name:hr:1925-1961": "Staljingrad",
        "old_name:it:1589-1925": "Caricyn",
        "old_name:it:1925-1961": "Stalingrado",
        "old_name:ko:1589-1925": "차리친",
        "old_name:ko:1925-1961": "스탈린그라드",
        "old_name:sr-Latn:1925-1961": "Staljingrad",
        "old_name:sr:1925-1961": "Стаљинград",
        "old_name:vi:1589-1925": "Xa-rít-xưn",
        "old_name:vi:1925-1961": "Xta-lin-grát",
        "place": "city",
        "population": "1025662",
        "population:date": "2023-01-01",
        "source:name:oc": "Lo Congrès",
        "start_date": "1589",
        "wikidata": "Q914",
        "wikipedia": "ru:Волгоград"
      },
      "geometry": {
        "type": "Point",
        "coordinates": [
          44.5153353,
          48.7081906
        ]
      },
      "id": "node/27504363"
    },
    {
      "type": "Feature",
      "properties": {
        "@id": "node/27504531",
        "addr:country": "RU",
        "addr:region": "Пермский край",
        "admin_level": "4",
        "capital": "4",
        "contact:email": "main@gorodperm.ru",
        "contact:phone": "+7 342 2173317",
        "contact:website": "https://gorodperm.ru",
        "ele": "149",
        "flag": "https://upload.wikimedia.org/wikipedia/commons/1/19/Flag_of_Perm.svg",
        "image": "https://upload.wikimedia.org/wikipedia/commons/b/b8/Bulvar_Gagarina.jpg",
        "int_name": "Perm",
        "name": "Пермь",
        "name:af": "Perm",
        "name:alt": "Пермь",
        "name:am": "ፕየርም",
        "name:ar": "بيرم",
        "name:ast": "Perm",
        "name:avk": "Perm",
        "name:az": "Perm",
        "name:azb": "پرم",
        "name:ba": "Пермь",
        "name:be": "Перм",
        "name:be-tarask": "Перм",
        "name:bg": "Перм",
        "name:bn": "পার্ম",
        "name:br": "Perm",
        "name:bs": "Perm",
        "name:bxr": "Пермь",
        "name:ca": "Perm",
        "name:ce": "Пермь",
        "name:ceb": "Perm",
        "name:crh": "Perm",
        "name:cs": "Perm",
        "name:cu": "Пєрмь",
        "name:cv": "Перĕм",
        "name:cy": "Perm",
        "name:da": "Perm",
        "name:de": "Perm",
        "name:el": "Περμ",
        "name:en": "Perm",
        "name:eo": "Permjo",
        "name:es": "Perm",
        "name:et": "Perm",
        "name:eu": "Perm",
        "name:fa": "پرم",
        "name:fi": "Perm",
        "name:fr": "Perm",
        "name:frr": "Perm",
        "name:fy": "Perm",
        "name:ga": "Perm",
        "name:gl": "Perm",
        "name:ha": "Perm",
        "name:he": "פרם",
        "name:hi": "पर्म",
        "name:hr": "Perm",
        "name:hsb": "Perm",
        "name:hu": "Perm",
        "name:hy": "Պերմ",
        "name:hyw": "Բերմ",
        "name:ia": "Perm",
        "name:id": "Perm",
        "name:ie": "Perm",
        "name:io": "Perm",
        "name:is": "Perm",
        "name:it": "Perm'",
        "name:ja": "ペルミ",
        "name:ka": "პერმი",
        "name:kn": "ಪೆರ್ಮ್",
        "name:ko": "페름",
        "name:koi": "Перем",
        "name:ku": "Perm",
        "name:kv": "Перым",
        "name:ky": "Пермь",
        "name:la": "Permia",
        "name:lb": "Perm",
        "name:lez": "Пермь",
        "name:li": "Perm",
        "name:lld": "Perm",
        "name:lmo": "Perm'",
        "name:lt": "Permė",
        "name:lv": "Perma",
        "name:mhr": "Пермь",
        "name:min": "Perm",
        "name:mk": "Перм",
        "name:mn": "Пермь",
        "name:mr": "पर्म",
        "name:ms": "Perm",
        "name:myv": "Пермь",
        "name:nb": "Perm",
        "name:nl": "Perm",
        "name:nn": "Perm",
        "name:no": "Perm",
        "name:oc": "Perm",
        "name:os": "Пермь",
        "name:pl": "Perm",
        "name:pms": "Perm",
        "name:pnb": "پرم",
        "name:ps": "پيرم",
        "name:pt": "Perm",
        "name:ro": "Perm",
        "name:ru": "Пермь",
        "name:scn": "Perm",
        "name:sco": "Perm",
        "name:sh": "Perm",
        "name:sk": "Perm",
        "name:sl": "Perm",
        "name:sr": "Перм",
        "name:sr-Latn": "Perm",
        "name:sv": "Perm",
        "name:sw": "Perm",
        "name:ta": "பேர்ம்",
        "name:tg": "Перм",
        "name:th": "เปียร์ม",
        "name:tl": "Perm",
        "name:tly": "Perm",
        "name:tr": "Perm",
        "name:tt": "Пермь крае",
        "name:tum": "Perm",
        "name:tw": "Perm",
        "name:udm": "Пермь",
        "name:uk": "Перм",
        "name:ur": "پیرم",
        "name:uz": "Perm",
        "name:vep": "Perm'",
        "name:vi": "Perm",
        "name:vo": "Perm",
        "name:war": "Perm",
        "name:wo": "Perm",
        "name:wuu": "彼尔姆",
        "name:xmf": "პერმი",
        "name:zh": "彼尔姆",
        "name:zh-Hans": "彼尔姆",
        "name:zh-Hant": "彼爾姆",
        "official_status": "ru:город",
        "old_name": "Молотов;Егошихинский завод",
        "place": "city",
        "population": "1026908",
        "population:date": "2024-01-01",
        "source:name:oc": "Lo Congrès",
        "start_date": "1723",
        "wikidata": "Q915",
        "wikipedia": "ru:Пермь"
      },
      "geometry": {
        "type": "Point",
        "coordinates": [
          56.246723,
          58.014965
        ]
      },
      "id": "node/27504531"
    },
    {
      "type": "Feature",
      "properties": {
        "@id": "node/27505044",
        "addr:country": "RU",
        "addr:region": "Воронежская область",
        "admin_level": "4",
        "alt_name:ar": "فورونيج",
        "capital": "4",
        "contact:website": "https://voronezh-city.ru",
        "int_name": "Voronezh",
        "is_in:country": "Russian Federation",
        "is_in:country_code": "RU",
        "name": "Воронеж",
        "name:af": "Woronezj",
        "name:ar": "فارونيش",
        "name:az": "Voronej",
        "name:be": "Варонеж",
        "name:bn": "ভারোনিশ",
        "name:br": "Voronej",
        "name:ca": "Vorónej",
        "name:ce": "Воронеж",
        "name:crh": "Voronej",
        "name:cs": "Voroněž",
        "name:cu": "Воронєжь",
        "name:cy": "Voronezh",
        "name:da": "Voronezj",
        "name:de": "Woronesch",
        "name:el": "Βορόνεζ",
        "name:en": "Voronezh",
        "name:eo": "Voroneĵ",
        "name:es": "Vorónezh",
        "name:et": "Voronež",
        "name:eu": "Voronezh",
        "name:fa": "وورونژ",
        "name:fi": "Voronež",
        "name:fr": "Voronej",
        "name:fy": "Voronezj",
        "name:ga": "Voronezh",
        "name:gd": "Voronezh",
        "name:ha": "Voronezh",
        "name:he": "וורונז'",
        "name:hr": "Voronjež",
        "name:hsb": "Woronjež",
        "name:hu": "Voronyezs",
        "name:hy": "Վորոնեժ",
        "name:id": "Voronezh",
        "name:is": "Voronezh",
        "name:it": "Voronež",
        "name:ja": "ヴォロネジ",
        "name:ka": "ვორონეჟი",
        "name:ko": "보로네시",
        "name:ky": "Воронеж",
        "name:la": "Voronegia",
        "name:lb": "Woronej",
        "name:lg": "Voronezh",
        "name:lt": "Voronežas",
        "name:lv": "Voroņeža",
        "name:ml": "വൊറോനെജ്",
        "name:mn": "Воронеж",
        "name:mr": "वोरोनेझ",
        "name:nb": "Voronezj",
        "name:nl": "Voronezj",
        "name:nn": "Voronezj",
        "name:os": "Воронеж",
        "name:pa": "ਵੋਰੋਨੱਝ਼",
        "name:pl": "Woroneż",
        "name:ps": "ورونيش",
        "name:pt": "Voronej",
        "name:ro": "Voronej",
        "name:ru": "Воронеж",
        "name:ru:word_stress": "Воро́неж",
        "name:sk": "Voronež",
        "name:sl": "Voronež",
        "name:sr": "Вороњеж",
        "name:sv": "Voronezj",
        "name:sw": "Voronezh",
        "name:th": "โวโรเนจ",
        "name:tl": "Voronezh",
        "name:tr": "Voronej",
        "name:tt": "Воронеж",
        "name:uk": "Воронеж",
        "name:ur": "ورونیژ",
        "name:uz": "Voronej",
        "name:vi": "Voronezh",
        "name:vo": "Voronej",
        "name:wo": "Voronezh",
        "name:xmf": "ვორონეჟი",
        "name:zh": "沃罗涅日",
        "name:zh-Hans": "沃罗涅日",
        "name:zh-Hant": "沃羅涅日",
        "official_status": "ru:город",
        "place": "city",
        "population": "1051995",
        "population:date": "2023-01-01",
        "start_date": "1586",
        "website": "https://voronezh-city.ru/",
        "wikidata": "Q3426",
        "wikipedia": "ru:Воронеж"
      },
      "geometry": {
        "type": "Point",
        "coordinates": [
          39.2005858,
          51.6605982
        ]
      },
      "id": "node/27505044"
    },
    {
      "type": "Feature",
      "properties": {
        "@id": "node/27505129",
        "addr:country": "RU",
        "addr:postcode": "350000",
        "addr:region": "Краснодарский край",
        "admin_level": "4",
        "capital": "4",
        "contact:facebook": "https://www.facebook.com/krdcity",
        "contact:instagram": "https://www.instagram.com/krdru/",
        "contact:ok": "https://ok.ru/krdru",
        "contact:rutube": "https://rutube.ru/channel/24771589/",
        "contact:telegram": "krdru",
        "contact:twitter": "https://twitter.com/krdru",
        "contact:vk": "https://vk.com/krdru",
        "contact:website": "https://krd.ru",
        "contact:youtube": "https://www.youtube.com/user/krasnodaradm",
        "image": "https://upload.wikimedia.org/wikipedia/commons/4/4d/Krasnodar_teatr.jpg",
        "int_name": "Krasnodar",
        "name": "Краснодар",
        "name:af": "Krasnodar",
        "name:am": "ክረስነዳር",
        "name:ar": "كراسنودار",
        "name:az": "Krasnodar",
        "name:be": "Краснадар",
        "name:bn": "ক্রাসনোদার",
        "name:br": "Krasnodar",
        "name:bs": "Krasnodar",
        "name:ca": "Krasnodar",
        "name:cs": "Krasnodar",
        "name:cu": "Красьнодаръ",
        "name:cy": "Krasnodar",
        "name:da": "Krasnodar",
        "name:de": "Krasnodar",
        "name:el": "Κρασνοντάρ",
        "name:en": "Krasnodar",
        "name:eo": "Krasnodar",
        "name:es": "Krasnodar",
        "name:et": "Krasnodar",
        "name:eu": "Krasnodar",
        "name:fa": "كراسنودار",
        "name:fi": "Krasnodar",
        "name:fr": "Krasnodar",
        "name:fy": "Krasnodar",
        "name:ga": "Krasnodar",
        "name:gag": "Krasnodar",
        "name:gl": "Krasnodar",
        "name:ha": "Krasnodar",
        "name:he": "קרסנודאר",
        "name:hr": "Krasnodar",
        "name:hsb": "Krasnodar",
        "name:hu": "Krasznodar",
        "name:hy": "Կրասնոդար",
        "name:ia": "Krasnodar",
        "name:id": "Krasnodar",
        "name:is": "Krasnodar",
        "name:it": "Krasnodar",
        "name:ja": "クラスノダール",
        "name:jv": "Krasnodar",
        "name:ka": "კრასნოდარი",
        "name:ko": "크라스노다르",
        "name:ku": "Krasnodar",
        "name:la": "Crasnodaria",
        "name:lt": "Krasnodaras",
        "name:lv": "Krasnodara",
        "name:ml": "ക്രാസ്നോദർ",
        "name:mr": "क्रास्नोदर",
        "name:nb": "Krasnodar",
        "name:nl": "Krasnodar",
        "name:nn": "Krasnodar",
        "name:os": "Краснодар",
        "name:pl": "Krasnodar",
        "name:pnb": "کراسنوڈار",
        "name:ps": "کراسنودار",
        "name:pt": "Krasnodar",
        "name:rn": "Krasnodar",
        "name:ro": "Krasnodar",
        "name:ru": "Краснодар",
        "name:ru:word_stress": "Краснода́р",
        "name:sk": "Krasnodar",
        "name:sl": "Krasnodar",
        "name:sq": "Krasnodari",
        "name:sr": "Краснодар",
        "name:sv": "Krasnodar",
        "name:sw": "Krasnodar",
        "name:th": "ครัสโนดาร์",
        "name:tr": "Krasnodar",
        "name:tw": "Krasnodar",
        "name:ug": "كراسنودار شەھىرى",
        "name:uk": "Краснодар",
        "name:ur": "کراسنوڈار",
        "name:uz": "Krasnodar",
        "name:vi": "Krasnodar",
        "name:wo": "Krasnodar",
        "name:xmf": "კრასნოდარი",
        "name:zh": "克拉斯诺达尔",
        "name:zh-Hans": "克拉斯诺达尔",
        "name:zh-Hant": "克拉斯諾達爾",
        "official_status": "ru:город",
        "okato:user": "03401",
        "old_name": "Екатеринодар",
        "place": "city",
        "population": "1138654",
        "population:date": "2024-01-01",
        "short_name": "КРД",
        "start_date": "1793",
        "wikidata": "Q3646",
        "wikipedia": "ru:Краснодар"
      },
      "geometry": {
        "type": "Point",
        "coordinates": [
          38.9772396,
          45.0351532
        ]
      },
      "id": "node/27505129"
    },
    {
      "type": "Feature",
      "properties": {
        "@id": "node/27505889",
        "addr:district": "городской округ Нижний Новгород",
        "addr:region": "Нижегородская область",
        "admin_level": "3",
        "capital": "3",
        "contact:website": "http://нижнийновгород.рф",
        "int_name": "Nizhny Novgorod",
        "loc_name": "Нижний",
        "name": "Нижний Новгород",
        "name:af": "Wissel die inhoudsopgawe Nizjni Nowgorod",
        "name:alt": "Отобразить/Скрыть содержание Алтыгы Новгород",
        "name:am": "ኒዥኒ ኖቭጎሮድ",
        "name:ar": "نيجني نوفغورود",
        "name:arz": "نيجنى نوفجورود",
        "name:ast": "Nizhni Nóvgorod",
        "name:avk": "Nijni Novgorod",
        "name:az": "Nijni Novqorod",
        "name:azb": "نیژنی نووقورود",
        "name:ba": "Түбәнге Новгород",
        "name:ban": "Nizhny Novgorod",
        "name:bat-smg": "Йөкмәткене күрһәтергә/йәшерергә Түбәнге Новгород",
        "name:be": "Ніжні Ноўгарад",
        "name:be-tarask": "Ніжні Ноўгарад",
        "name:bg": "Нижни Новгород",
        "name:bn": "নিঝনি নোভগরদ",
        "name:br": "Nijniy Novgorod",
        "name:bs": "Nižnji Novgorod",
        "name:bxr": "Доодо Новгород",
        "name:ca": "Nijni Nóvgorod",
        "name:ce": "Нижни Новгород",
        "name:ceb": "Nizhniy Novgorod",
        "name:chm": "Угарман",
        "name:crh": "Nijniy Novgorod",
        "name:cs": "Nižnij Novgorod",
        "name:cu": "Нижьн҄ии Новъ Градъ",
        "name:cv": "Чулхула",
        "name:cy": "Nizhniy Novgorod",
        "name:da": "Nisjnij Novgorod",
        "name:de": "Nischni Nowgorod",
        "name:el": "Νίζνι Νόβγκοροντ",
        "name:en": "Nizhny Novgorod",
        "name:eo": "Niĵnij Novgorod",
        "name:es": "Nizhni Novgorod",
        "name:et": "Nižni Novgorod",
        "name:eu": "Nizhni Novgorod",
        "name:fa": "نیژنی نووگورود",
        "name:fi": "Nižni Novgorod",
        "name:fr": "Nijni Novgorod",
        "name:frr": "Nischni Nowgorod",
        "name:fy": "Nizjni Novgorod",
        "name:ga": "Nizhny Novgorod",
        "name:gl": "Nizhnii Novgorod",
        "name:ha": "Nizhny Novgorod",
        "name:hak": "Nizhny Novgorod",
        "name:he": "ניז'ני נובגורוד",
        "name:hi": "निज्नी नॊव्गोरोद",
        "name:hr": "Nižnji Novgorod",
        "name:hsb": "Nižny Nowgorod",
        "name:hu": "Nyizsnij Novgorod",
        "name:hy": "Նիժնի Նովգորոդ",
        "name:id": "Nizhny Novgorod",
        "name:io": "Nijni Novgorod",
        "name:is": "Nízhníj Novgorod",
        "name:it": "Niznij Novgorod",
        "name:ja": "ニジニ・ノヴゴロド",
        "name:ka": "ნიჟნი-ნოვგოროდი",
        "name:kk": "Төменгі Новгород",
        "name:kk-Arab": "Төменгі Новгород",
        "name:kn": "ನಿಜ್ನೀ ನೊವ್ಗೋರೋದ್",
        "name:ko": "니즈니노브고로드",
        "name:ko-Latn": "니즈니노브고로드",
        "name:koi": "Макарья",
        "name:ku": "Nîjnî Novgorod",
        "name:kv": "Макаръя",
        "name:ky": "Нижний Новгород",
        "name:la": "Novogardia Inferior",
        "name:lez": "Агъа Новгород",
        "name:li": "Nizjni Novgorod",
        "name:lld": "Nijni Novgorod",
        "name:lt": "Žemutinis Naugardas",
        "name:lv": "Ņižņijnovgoroda",
        "name:mdf": "Пряфкслепнень лиякс туфтомасна Ала ош",
        "name:mhr": "Угарман",
        "name:min": "Nizhny Novgorod",
        "name:mk": "Нижни Новгород",
        "name:ml": "നിജ്നി നോവ്ഗൊറോഡ്",
        "name:mn": "Доод Новгород",
        "name:mr": "निज्नी नॉवगोरोद",
        "name:mrj": "Угарман",
        "name:ms": "Nizhny Novgorod",
        "name:my": "ညီးရှ်နီး နော့ဗ်ဂေါရတ်မြို့",
        "name:myv": "Алоош",
        "name:nb": "Nizjnij Novgorod",
        "name:nds": "Nischni Nowgorod",
        "name:nl": "Nizjni Novgorod",
        "name:nn": "Nizjnij Novgorod",
        "name:no": "Nizjnij Novgorod",
        "name:oc": "Nizhniy Novgorod",
        "name:os": "Дæллаг Новгород",
        "name:pl": "Niżny Nowogród",
        "name:pnb": "نیژنی نووگورد",
        "name:ps": "نېژني نوګورود",
        "name:pt": "Nijni Novgorod",
        "name:qu": "Nizhniy Novgorod",
        "name:rmy": "Nijni Novgorod",
        "name:ro": "Nijni Novgorod",
        "name:ru": "Нижний Новгород",
        "name:ru:word_stress": "Ни́жний Но́вгород",
        "name:rue": "Нижнїй Новгород",
        "name:sah": "Алын Новгород",
        "name:scn": "Nižnij Novgorod",
        "name:sco": "Nizhny Novgorod",
        "name:se": "Nižni Novgorod",
        "name:sh": "Nižnji Novgorod",
        "name:sk": "Nižný Novgorod",
        "name:sl": "Nižni Novgorod",
        "name:sq": "Nizhny Novgorod",
        "name:sr": "Нижњи Новгород",
        "name:sv": "Nizjnij Novgorod",
        "name:sw": "Nizhniy Novgorod",
        "name:szl": "Ńiżńij Nowgorod",
        "name:ta": "நீசுனி நோவ்கோரத்",
        "name:tg": "Нижний Новгород",
        "name:th": "นิจนีนอฟโกรอด",
        "name:tl": "Nizhny Novgorod",
        "name:tly": "Nižnij Novgorod",
        "name:tr": "Nijni Novgorod",
        "name:tt": "Нижгар",
        "name:tum": "Nizhny Novgorod",
        "name:tw": "Nižnij Novgorod",
        "name:udm": "Нижний Новгород",
        "name:uk": "Нижній Новгород",
        "name:uk:word_stress": "Нижній Новгород",
        "name:ur": "نیژنی نووگورود",
        "name:uz": "Nijniy Novgorod",
        "name:vep": "Alauz'lidn",
        "name:vi": "Nizhny Novgorod",
        "name:war": "Nizhny Novgorod",
        "name:wo": "Nizhny Novgorod",
        "name:wuu": "下诺夫哥罗德",
        "name:xmf": "ნიჟნი-ნოვგოროდი",
        "name:yue": "下諾夫哥羅德",
        "name:zh": "下诺夫哥罗德",
        "name:zh-Hans": "下诺夫哥罗德",
        "name:zh-Hant": "下諾夫哥羅德",
        "official_name": "город Нижний Новгород",
        "official_status": "ru:город",
        "old_name:1932-10-07--1990-10-22": "Горький",
        "old_name:en": "Gorky",
        "place": "city",
        "population": "1204985",
        "population:date": "2024-01-01",
        "source:name:oc": "Lo Congrès",
        "start_date": "1221",
        "wikidata": "Q891",
        "wikipedia": "ru:Нижний Новгород"
      },
      "geometry": {
        "type": "Point",
        "coordinates": [
          44.0051395,
          56.3264816
        ]
      },
      "id": "node/27505889"
    },
    {
      "type": "Feature",
      "properties": {
        "@id": "node/160569651",
        "addr:country": "RU",
        "addr:district": "городской округ Ростов-на-Дону",
        "addr:region": "Ростовская область",
        "admin_level": "6",
        "alt_name:it": "Rostov",
        "alt_name:ko": "로스티우",
        "alt_name:ru": "Ростов",
        "alt_name:uk": "Ростів",
        "capital": "3",
        "contact:email": "rostov@donland.ru",
        "contact:ok": "https://ok.ru/group/59354403832023",
        "contact:phone": "+7 863 2409184",
        "contact:telegram": "Rostov_Gorod_Admin",
        "contact:vk": "https://vk.com/public185985289",
        "contact:website": "https://rostov-gorod.ru",
        "int_name": "Rostov-na-Donu",
        "name": "Ростов-на-Дону",
        "name:af": "Rostof aan die Don",
        "name:am": "ረስቶፍ-በ-ዶን",
        "name:ar": "روستوف-نا-دونو",
        "name:az": "Rostov-na-Donu",
        "name:ba": "Дондағы Ростов",
        "name:be": "Растоў-на-Доне",
        "name:be-tarask": "Растоў-на-Доне",
        "name:bg": "Ростов на Дон",
        "name:bn": "রোস্তভ-ন্য-দানু",
        "name:br": "Rostov-an-Don",
        "name:bs": "Rostov na Donu",
        "name:ca": "Rostov del Don",
        "name:ce": "Дон-тӀера-Ростов",
        "name:co": "Rostov sopra u Donu",
        "name:cs": "Rostov na Donu",
        "name:cu": "Растовъ на Донѣ",
        "name:cv": "Тан-ҫи-Ростов",
        "name:cy": "Rostov-ar-Ddon",
        "name:da": "Rostov ved Don",
        "name:de": "Rostow am Don",
        "name:el": "Ροστόφ επί του Ντον",
        "name:en": "Rostov-on-Don",
        "name:eo": "Rostovo ĉe Dono",
        "name:es": "Rostov del Don",
        "name:et": "Rostov Doni ääres",
        "name:eu": "Rostov Don",
        "name:fa": "روستوف-نا-دونو",
        "name:fi": "Rostov-na-Donu",
        "name:fr": "Rostov-sur-le-Don",
        "name:fy": "Rostov oan de Don",
        "name:ga": "Rostov na Donu",
        "name:gl": "Rostov do Don",
        "name:gv": "Rostov-na-Donu",
        "name:he": "רוסטוב על הדון",
        "name:hi": "रोस्तोव",
        "name:hr": "Rostov na Donu",
        "name:hsb": "Rostow nad Donom",
        "name:hu": "Rosztov",
        "name:hy": "Դոնի Ռոստով",
        "name:id": "Rostov na Donu",
        "name:io": "Rostov-na-Donu",
        "name:is": "Rostov við Don",
        "name:it": "Rostov sul Don",
        "name:ja": "ロストフ・ナ・ドヌ",
        "name:ka": "დონის როსტოვი",
        "name:kbd": "Ростов-на-Дону",
        "name:kk": "Дондағы Ростов",
        "name:kn": "ರೋಸ್ತೊವ್",
        "name:ko": "로스토프나도누",
        "name:krc": "Дондагъы Ростов",
        "name:ku": "Rostov-na-Donû",
        "name:kv": "Ростов Дон",
        "name:ky": "Дондогу Ростов",
        "name:la": "Rostovia ad Tanaim",
        "name:li": "Rostov aon d'n Don",
        "name:lt": "Rostovas prie Dono",
        "name:lv": "Rostova pie Donas",
        "name:mg": "Rostov-on-Don",
        "name:mi": "Rahataua awa Don",
        "name:mk": "Ростов на Дон",
        "name:ml": "റോസ്റ്റോവ്-ഓൺ-ഡോൺ",
        "name:mn": "Донын Ростов",
        "name:mr": "रोस्तोव दॉन",
        "name:ms": "Rostov-on-Don",
        "name:my": "ရပ်စတော့ဗ် နာ ဒန်နူမြို့",
        "name:nb": "Rostov-na-Donu",
        "name:nl": "Rostov aan de Don",
        "name:nn": "Rostov-na-Donu",
        "name:oc": "Rostov de Dòn",
        "name:os": "Ростов-Доныл",
        "name:pl": "Rostów nad Donem",
        "name:ps": "روستوف نادونو",
        "name:pt": "Rostov do Don",
        "name:ro": "Rostov-pe-Don",
        "name:ru": "Ростов-на-Дону",
        "name:ru:word_stress": "Росто́в на Дону́",
        "name:sk": "Rostov nad Donom",
        "name:sl": "Rostov na Donu",
        "name:sr": "Ростов на Дону",
        "name:sv": "Rostov-na-Donu",
        "name:sw": "Rostov juu ya Don",
        "name:ta": "தொன்-மீது-ரசுத்தோவ்",
        "name:tg": "Ростови лаби Дон",
        "name:th": "รอสตอฟ-นา-โดนู",
        "name:tl": "Rostov-na-Donu",
        "name:tr": "Rostov",
        "name:tt": "Дондагы Ростов",
        "name:tw": "Rostov-na-Donu",
        "name:uk": "Ростов-на-Дону",
        "name:ur": "روستوف-نا-دونو",
        "name:uz": "Rostov-Don",
        "name:vi": "Rostov trên sông Đông",
        "name:vo": "Rostov-na-Donu",
        "name:wo": "Rostov-na-Donu",
        "name:zh": "顿河畔罗斯托夫",
        "name:zh-Hans": "顿河畔罗斯托夫",
        "name:zh-Hant": "頓河畔羅斯托夫",
        "name:zu": "Irostov-On-Don",
        "official_status": "ru:город",
        "place": "city",
        "population": "1135968",
        "population:date": "2023-01-01",
        "short_name": "РНД",
        "source:name:oc": "Lo Congrès",
        "start_date": "1749",
        "wikidata": "Q908",
        "wikipedia": "ru:Ростов-на-Дону"
      },
      "geometry": {
        "type": "Point",
        "coordinates": [
          39.7096061,
          47.2216548
        ]
      },
      "id": "node/160569651"
    },
    {
      "type": "Feature",
      "properties": {
        "@id": "node/178951928",
        "addr:country": "RU",
        "addr:region": "Красноярский край",
        "admin_level": "6",
        "capital": "4",
        "check_date": "2024-05-05",
        "contact:email": "adm@admkrsk.ru",
        "contact:ok": "https://ok.ru/krasnoyarskrf",
        "contact:phone": "+7 391 2261122",
        "contact:telegram": "adm_krasnoyarsk",
        "contact:vk": "https://vk.com/krasnoyarskrf",
        "contact:website": "https://www.admkrsk.ru",
        "contact:youtube": "https://www.youtube.com/gorodkrasnoyarsk",
        "int_name": "Krasnoyarsk",
        "name": "Красноярск",
        "name:ab": "Красноиарск",
        "name:af": "Krasnojarsk",
        "name:ar": "كراسنويارسك",
        "name:az": "Krasnoyarsk",
        "name:be": "Краснаярск",
        "name:br": "Krasnoyarsk",
        "name:bs": "Krasnojarsk",
        "name:ca": "Krasnoiarsk",
        "name:cs": "Krasnojarsk",
        "name:cu": "Красьноꙗрьскъ",
        "name:cy": "Krasnoyarsk",
        "name:da": "Krasnojarsk",
        "name:de": "Krasnojarsk",
        "name:el": "Κρασνογιάρσκ",
        "name:en": "Krasnoyarsk",
        "name:eo": "Krasnojarsko",
        "name:es": "Krasnoyarsk",
        "name:et": "Krasnojarsk",
        "name:eu": "Krasnoiarsk",
        "name:fa": "کراسنویارسک",
        "name:fi": "Krasnojarsk",
        "name:fr": "Krasnoïarsk",
        "name:fy": "Krasnojarsk",
        "name:ga": "Krasnoyarsk",
        "name:gl": "Krasnoiarsk",
        "name:ha": "Krasnoyarsk",
        "name:he": "קרסנויארסק",
        "name:hr": "Krasnojarsk",
        "name:hu": "Krasznojarszk",
        "name:hy": "Կրասնոյարսկ",
        "name:id": "Krasnoyarsk",
        "name:io": "Krasnoyarsk",
        "name:is": "Krasnojarsk",
        "name:it": "Krasnojarsk",
        "name:ja": "クラスノヤルスク",
        "name:ka": "კრასნოიარსკი",
        "name:ko": "크라스노야르스크",
        "name:la": "Crasnoiarium",
        "name:lb": "Krasnojarsk",
        "name:lg": "Krasnoyarsk",
        "name:lt": "Krasnojarskas",
        "name:lv": "Krasnojarska",
        "name:mk": "Краснојарск",
        "name:mr": "क्रास्नोयार्स्क",
        "name:ms": "Krasnoyarsk",
        "name:nb": "Krasnojarsk",
        "name:nl": "Krasnojarsk",
        "name:nn": "Krasnojarsk",
        "name:pl": "Krasnojarsk",
        "name:pt": "Krasnoyarsk",
        "name:ro": "Krasnoiarsk",
        "name:ru": "Красноярск",
        "name:ru:word_stress": "Красноя́рск",
        "name:sk": "Krasnojarsk",
        "name:sl": "Krasnojarsk",
        "name:sr": "Краснојарск",
        "name:sv": "Krasnojarsk",
        "name:sw": "Krasnoyarsk",
        "name:ta": "கிராசுநோயார்சுக்",
        "name:th": "ครัสโนยาสค์",
        "name:tl": "Krasnoyarsk",
        "name:tr": "Krasnoyarsk",
        "name:uk": "Красноярськ",
        "name:ur": "کراسنویارسک",
        "name:uz": "Krasnoyarsk",
        "name:vi": "Krasnoyarsk",
        "name:vo": "Krasnoyarsk",
        "name:wo": "Krasnoyarsk",
        "name:zh": "克拉斯諾亞爾斯克",
        "name:zh-Hans": "克拉斯诺雅尔斯克",
        "name:zh-Hant": "克拉斯諾亞爾斯克",
        "official_status": "ru:город",
        "old_name": "Тамбалык",
        "place": "city",
        "population": "1205473",
        "population:date": "2024-01-01",
        "source:population": "wikipedia",
        "start_date": "1628",
        "wikidata": "Q919",
        "wikipedia": "ru:Красноярск"
      },
      "geometry": {
        "type": "Point",
        "coordinates": [
          92.872586,
          56.0091173
        ]
      },
      "id": "node/178951928"
    },
    {
      "type": "Feature",
      "properties": {
        "@id": "node/1686293227",
        "addr:country": "RU",
        "addr:region": "Москва",
        "admin_level": "2",
        "alt_name:vi": "Mạc Tư Khoa",
        "capital": "yes",
        "contact:website": "https://www.mos.ru",
        "ele": "130",
        "flag": "https://upload.wikimedia.org/wikipedia/commons/0/03/Flag_of_Moscow%2C_Russia.svg",
        "image": "https://upload.wikimedia.org/wikipedia/commons/0/01/Moscow_July_2011-16.jpg",
        "int_name": "Moscow",
        "is_capital": "country",
        "name": "Москва",
        "name:ab": "Москва",
        "name:ace": "Moskow",
        "name:af": "Moskou",
        "name:ak": "Moscow",
        "name:am": "ሞስኮ",
        "name:an": "Moscú",
        "name:ang": "Moscoƿ",
        "name:ar": "موسكو",
        "name:arc": "ܡܘܣܩܒܐ",
        "name:arz": "موسكو",
        "name:ast": "Moscú",
        "name:av": "Москва",
        "name:ay": "Mosku",
        "name:az": "Moskva",
        "name:ba": "Мәскәү",
        "name:bat-smg": "Maskva",
        "name:bcl": "Mosku",
        "name:be": "Масква",
        "name:be-tarask": "Масква",
        "name:bg": "Москва",
        "name:bh": "मास्को",
        "name:bi": "Moskow",
        "name:bm": "Moscow",
        "name:bn": "মস্কো",
        "name:bo": "མོ་སི་ཁོ།",
        "name:br": "Moskov",
        "name:bs": "Moskva",
        "name:bxr": "Мушхаваа",
        "name:ca": "Moscou",
        "name:ce": "Москох",
        "name:ch": "Moscow",
        "name:chm": "Моско",
        "name:chu": "Москва̀",
        "name:ckb": "مۆسکۆ",
        "name:co": "Moscù",
        "name:crh": "Moskva",
        "name:cs": "Moskva",
        "name:csb": "Mòskwa",
        "name:cu": "Москъва",
        "name:cv": "Мускав",
        "name:cy": "Moscfa",
        "name:da": "Moskva",
        "name:de": "Moskau",
        "name:diq": "Moskowa",
        "name:dsb": "Moskwa",
        "name:dv": "މޮސްކޯ",
        "name:dz": "མོསི་ཀོ",
        "name:el": "Μόσχα",
        "name:eml": "Måssca",
        "name:en": "Moscow",
        "name:eo": "Moskvo",
        "name:es": "Moscú",
        "name:et": "Moskva",
        "name:eu": "Mosku",
        "name:ext": "Moscú",
        "name:fa": "مسکو",
        "name:fi": "Moskova",
        "name:fj": "Mosiko",
        "name:fo": "Moskva",
        "name:fr": "Moscou",
        "name:frp": "Moscou",
        "name:frr": "Moskva",
        "name:fy": "Moskou",
        "name:ga": "Moscó",
        "name:gag": "Moskva",
        "name:gan": "莫斯科",
        "name:gd": "Mosgo",
        "name:gl": "Moscova - Москва",
        "name:gn": "Mosku",
        "name:gv": "Moscow",
        "name:ha": "Moscow",
        "name:haw": "Mokekao",
        "name:he": "מוסקווה",
        "name:hi": "मास्को",
        "name:hif": "Moscow",
        "name:hr": "Moskva",
        "name:hsb": "Moskwa",
        "name:ht": "Moskou",
        "name:hu": "Moszkva",
        "name:hy": "Մոսկվա",
        "name:ia": "Moscova",
        "name:id": "Moskwa",
        "name:ie": "Moskwa",
        "name:ilo": "Moscow",
        "name:io": "Moskva",
        "name:is": "Moskva",
        "name:it": "Mosca",
        "name:iu": "ᒨᔅᑯ",
        "name:ja": "モスクワ",
        "name:jbo": "moskovas",
        "name:jv": "Moskwa",
        "name:ka": "მოსკოვი",
        "name:kaa": "Moskva",
        "name:kab": "Musku",
        "name:kbd": "Мэзкуу",
        "name:kg": "Moskva",
        "name:ki": "Moscow",
        "name:kk": "Мәскеу",
        "name:kl": "Moskva",
        "name:km": "ម៉ូស្គូ",
        "name:kn": "ಮಾಸ್ಕೋ",
        "name:ko": "모스크바",
        "name:koi": "Мӧсква",
        "name:krc": "Москва",
        "name:ks": "ماسکو",
        "name:ku": "Moskow",
        "name:kv": "Мӧскуа",
        "name:kw": "Moskva",
        "name:ky": "Москва",
        "name:la": "Moscua",
        "name:lad": "Mosku",
        "name:lb": "Moskau",
        "name:lbe": "Москав",
        "name:lez": "Москва",
        "name:lg": "Moosko",
        "name:li": "Moskou",
        "name:lij": "Mosca",
        "name:lmo": "Musca",
        "name:ln": "Moskú",
        "name:lo": "ມອສໂກ",
        "name:lt": "Maskva",
        "name:lv": "Maskava",
        "name:lzh": "莫斯科",
        "name:mdf": "Моску",
        "name:mg": "Moskva",
        "name:mhr": "Моско",
        "name:mi": "Mohikau",
        "name:mk": "Москва",
        "name:ml": "മോസ്കോ",
        "name:mn": "Москва",
        "name:mr": "मॉस्को",
        "name:mrj": "Москва",
        "name:ms": "Moscow",
        "name:mt": "Moska",
        "name:mwl": "Moscobo",
        "name:my": "မော်စကိုမြို့",
        "name:myv": "Москов ош",
        "name:mzn": "موسکو",
        "name:na": "Moscow",
        "name:nah": "Moscohuia",
        "name:nan": "Bo̍k-su-kho",
        "name:nap": "Mosca",
        "name:nb": "Moskva",
        "name:nds": "Moskau",
        "name:nds-nl": "Moskou",
        "name:ne": "मस्को",
        "name:nl": "Moskou",
        "name:nn": "Moskva",
        "name:no": "Moskva",
        "name:nov": "Moskva",
        "name:nrm": "Moscou",
        "name:nv": "Halzhin Deezlíní",
        "name:ny": "Moscow",
        "name:oc": "Moscòu",
        "name:om": "Mooskoo",
        "name:or": "ମସ୍କୋ",
        "name:os": "Мæскуы",
        "name:pa": "ਮਾਸਕੋ",
        "name:pap": "Moskou",
        "name:pcd": "Moscou",
        "name:pdc": "Moscow",
        "name:pl": "Moskwa",
        "name:pms": "Mosca",
        "name:pnb": "ماسکو",
        "name:pnt": "Μόσχα",
        "name:ps": "مسکو",
        "name:pt": "Moscovo",
        "name:pt-BR": "Moscou",
        "name:qu": "Moskwa",
        "name:rm": "Moscau",
        "name:rmy": "Moscova",
        "name:rn": "Moscou",
        "name:ro": "Moscova",
        "name:roa-rup": "Moscova",
        "name:roa-tara": "Mosche",
        "name:ru": "Москва",
        "name:ru:word_stress": "Москва́",
        "name:rue": "Москва",
        "name:sa": "मास्कोनगरम्",
        "name:sah": "Москва",
        "name:sc": "Mosca",
        "name:scn": "Mosca",
        "name:sco": "Moscow",
        "name:sd": "ماسڪو",
        "name:se": "Moskva",
        "name:sg": "Moscow",
        "name:sh": "Moskva",
        "name:si": "මොස්කව්",
        "name:simple": "Moscow",
        "name:sk": "Moskva",
        "name:sl": "Moskva",
        "name:sm": "Moscow",
        "name:sn": "Moscow",
        "name:so": "Moskow",
        "name:sq": "Moska",
        "name:sr": "Москва",
        "name:sr-Latn": "Moskva",
        "name:ss": "Moscow",
        "name:st": "Moscow",
        "name:su": "Moskwa",
        "name:sv": "Moskva",
        "name:sw": "Moscow",
        "name:szl": "Moskwa",
        "name:ta": "மாஸ்கோ",
        "name:te": "మాస్కో",
        "name:tet": "Moskovu",
        "name:tg": "Маскав",
        "name:th": "มอสโก",
        "name:tk": "Moskwa",
        "name:tl": "Moscow",
        "name:to": "Mosekou",
        "name:tpi": "Mosko",
        "name:tr": "Moskova",
        "name:tt": "Мәскәү",
        "name:tw": "Moskow",
        "name:ty": "Moscou",
        "name:tzl": "Moscal",
        "name:udm": "Муско",
        "name:ug": "Moskwa",
        "name:uk": "Москва",
        "name:ur": "ماسکو",
        "name:uz": "Moskva",
        "name:vec": "Mosca",
        "name:vep": "Moskv",
        "name:vi": "Moskva",
        "name:vls": "Moskou",
        "name:vo": "Moskva",
        "name:vro": "Moskva",
        "name:wa": "Moscou",
        "name:war": "Moscow",
        "name:wo": "Mosku",
        "name:xal": "Москва",
        "name:xh": "Moscou",
        "name:xmf": "მოსკოვი",
        "name:yi": "מאסקווע",
        "name:yo": "Mọ́skò",
        "name:yue": "莫斯科",
        "name:za": "Moscow",
        "name:zea": "Moskou",
        "name:zh": "莫斯科",
        "name:zu": "IMoskwa",
        "note": "эта точка должна быть здесь, в историческом центре Москвы",
        "official_status": "ru:город",
        "okato:user": "none",
        "place": "city",
        "population": "13274285",
        "population:date": "2025-01-01",
        "rank": "0",
        "sqkm": "2561.5",
        "start_date": "1147",
        "wikidata": "Q649",
        "wikipedia": "ru:Москва"
      },
      "geometry": {
        "type": "Point",
        "coordinates": [
          37.6174782,
          55.7505412
        ]
      },
      "id": "node/1686293227"
    }
  ]
}